{
  "type": "FeatureCollection",
  "features": [
    {
      "type": "Feature",
      "properties": {
        "norad_id": 43647,
        "name": "BEIDOU-3 M16 (C35)",
        "group": "gnss",
        "lat": 54.23679569869143,
        "lon": 34.00559958781758,
        "alt_km": 21514.535056383153,
        "timestamp": "2025-12-13T08:49:15.929357+00:00",
        "meta_object_name": "BEIDOU-3 M16 (C35)",
        "meta_object_id": "2018-078A",
        "meta_epoch": "2025-12-12T03:52:56.248896",
        "meta_mean_motion": 1.86232291,
        "meta_eccentricity": 0.00071745,
        "meta_inclination": 54.2625,
        "meta_ra_of_asc_node": 306.5413,
        "meta_arg_of_pericenter": 19.216,
        "meta_mean_anomaly": 340.802,
        "meta_ephemeris_type": 0,
        "meta_classification_type": "U",
        "meta_norad_cat_id": 43647,
        "meta_element_set_no": 999,
        "meta_rev_at_epoch": 4867,
        "meta_bstar": 0,
        "meta_mean_motion_dot": -9.2e-07,
        "meta_mean_motion_ddot": 0,
        "tle_line1": "1 43647U 18078A   25346.16176214 -.00000092  00000+0  00000+0 0  9996",
        "tle_line2": "2 43647  54.2625 306.5413 0007174  19.2160 340.8020  1.86232291 48676"
      },
      "geometry": {
        "type": "Point",
        "coordinates": [
          34.00559958781758,
          54.23679569869143
        ]
      }
    },
    {
      "type": "Feature",
      "properties": {
        "norad_id": 43648,
        "name": "BEIDOU-3 M15 (C34)",
        "group": "gnss",
        "lat": 1.4492013749854418,
        "lon": -52.47558450684211,
        "alt_km": 21518.299044580413,
        "timestamp": "2025-12-13T08:49:15.929368+00:00",
        "meta_object_name": "BEIDOU-3 M15 (C34)",
        "meta_object_id": "2018-078B",
        "meta_epoch": "2025-12-12T19:52:13.655712",
        "meta_mean_motion": 1.86231884,
        "meta_eccentricity": 0.00036384,
        "meta_inclination": 54.2577,
        "meta_ra_of_asc_node": 306.5185,
        "meta_arg_of_pericenter": 18.0764,
        "meta_mean_anomaly": 341.9269,
        "meta_ephemeris_type": 0,
        "meta_classification_type": "U",
        "meta_norad_cat_id": 43648,
        "meta_element_set_no": 999,
        "meta_rev_at_epoch": 4870,
        "meta_bstar": 0,
        "meta_mean_motion_dot": -9.5e-07,
        "meta_mean_motion_ddot": 0,
        "tle_line1": "1 43648U 18078B   25346.82793583 -.00000095  00000+0  00000+0 0  9997",
        "tle_line2": "2 43648  54.2577 306.5185 0003638  18.0764 341.9269  1.86231884 48705"
      },
      "geometry": {
        "type": "Point",
        "coordinates": [
          -52.47558450684211,
          1.4492013749854418
        ]
      }
    },
    {
      "type": "Feature",
      "properties": {
        "norad_id": 43683,
        "name": "BEIDOU-3 G1 (C59)",
        "group": "gnss",
        "lat": -2.4722480004662364,
        "lon": -5.340075289944752,
        "alt_km": 35793.77826964362,
        "timestamp": "2025-12-13T08:49:15.929379+00:00",
        "meta_object_name": "BEIDOU-3 G1 (C59)",
        "meta_object_id": "2018-085A",
        "meta_epoch": "2025-12-13T00:25:09.166080",
        "meta_mean_motion": 1.0027068,
        "meta_eccentricity": 0.00016999,
        "meta_inclination": 2.6087,
        "meta_ra_of_asc_node": 102.9683,
        "meta_arg_of_pericenter": 61.5479,
        "meta_mean_anomaly": 63.7963,
        "meta_ephemeris_type": 0,
        "meta_classification_type": "U",
        "meta_norad_cat_id": 43683,
        "meta_element_set_no": 999,
        "meta_rev_at_epoch": 2619,
        "meta_bstar": 0,
        "meta_mean_motion_dot": -2.64e-06,
        "meta_mean_motion_ddot": 0,
        "tle_line1": "1 43683U 18085A   25347.01746720 -.00000264  00000+0  00000+0 0  9995",
        "tle_line2": "2 43683   2.6087 102.9683 0001699  61.5479  63.7963  1.00270680 26191"
      },
      "geometry": {
        "type": "Point",
        "coordinates": [
          -5.340075289944752,
          -2.4722480004662364
        ]
      }
    },
    {
      "type": "Feature",
      "properties": {
        "norad_id": 43687,
        "name": "COSMOS 2529 (757)",
        "group": "gnss",
        "lat": 8.898006394899149,
        "lon": -156.8047810110651,
        "alt_km": 19137.25057659263,
        "timestamp": "2025-12-13T08:49:15.929393+00:00",
        "meta_object_name": "COSMOS 2529 (757)",
        "meta_object_id": "2018-086A",
        "meta_epoch": "2025-12-11T22:43:29.696736",
        "meta_mean_motion": 2.1310189,
        "meta_eccentricity": 0.00071924,
        "meta_inclination": 64.292,
        "meta_ra_of_asc_node": 198.9152,
        "meta_arg_of_pericenter": 254.1119,
        "meta_mean_anomaly": 105.8792,
        "meta_ephemeris_type": 0,
        "meta_classification_type": "U",
        "meta_norad_cat_id": 43687,
        "meta_element_set_no": 999,
        "meta_rev_at_epoch": 5529,
        "meta_bstar": 0,
        "meta_mean_motion_dot": 6.1e-07,
        "meta_mean_motion_ddot": 0,
        "tle_line1": "1 43687U 18086A   25345.94687149  .00000061  00000+0  00000+0 0  9993",
        "tle_line2": "2 43687  64.2920 198.9152 0007192 254.1119 105.8792  2.13101890 55298"
      },
      "geometry": {
        "type": "Point",
        "coordinates": [
          -156.8047810110651,
          8.898006394899149
        ]
      }
    },
    {
      "type": "Feature",
      "properties": {
        "norad_id": 43706,
        "name": "BEIDOU-3 M17 (C36)",
        "group": "gnss",
        "lat": -51.66530001423267,
        "lon": 74.63055620116029,
        "alt_km": 21523.276624650473,
        "timestamp": "2025-12-13T08:49:15.929407+00:00",
        "meta_object_name": "BEIDOU-3 M17 (C36)",
        "meta_object_id": "2018-093A",
        "meta_epoch": "2025-12-12T04:17:11.485824",
        "meta_mean_motion": 1.86228421,
        "meta_eccentricity": 0.00062217,
        "meta_inclination": 54.1726,
        "meta_ra_of_asc_node": 188.6407,
        "meta_arg_of_pericenter": 307.45,
        "meta_mean_anomaly": 230.9206,
        "meta_ephemeris_type": 0,
        "meta_classification_type": "U",
        "meta_norad_cat_id": 43706,
        "meta_element_set_no": 999,
        "meta_rev_at_epoch": 4805,
        "meta_bstar": 0,
        "meta_mean_motion_dot": 7.8e-07,
        "meta_mean_motion_ddot": 0,
        "tle_line1": "1 43706U 18093A   25346.17860516  .00000078  00000+0  00000+0 0  9998",
        "tle_line2": "2 43706  54.1726 188.6407 0006221 307.4500 230.9206  1.86228421 48054"
      },
      "geometry": {
        "type": "Point",
        "coordinates": [
          74.63055620116029,
          -51.66530001423267
        ]
      }
    },
    {
      "type": "Feature",
      "properties": {
        "norad_id": 43707,
        "name": "BEIDOU-3 M18 (C37)",
        "group": "gnss",
        "lat": -9.456674599138825,
        "lon": -178.31370178316936,
        "alt_km": 21512.330743877395,
        "timestamp": "2025-12-13T08:49:15.929418+00:00",
        "meta_object_name": "BEIDOU-3 M18 (C37)",
        "meta_object_id": "2018-093B",
        "meta_epoch": "2025-12-12T07:27:53.740224",
        "meta_mean_motion": 1.86226578,
        "meta_eccentricity": 0.00063412,
        "meta_inclination": 54.1733,
        "meta_ra_of_asc_node": 188.6279,
        "meta_arg_of_pericenter": 353.0309,
        "meta_mean_anomaly": 7.0205,
        "meta_ephemeris_type": 0,
        "meta_classification_type": "U",
        "meta_norad_cat_id": 43707,
        "meta_element_set_no": 999,
        "meta_rev_at_epoch": 4805,
        "meta_bstar": 0,
        "meta_mean_motion_dot": 8e-07,
        "meta_mean_motion_ddot": 0,
        "tle_line1": "1 43707U 18093B   25346.31103866  .00000080  00000+0  00000+0 0  9996",
        "tle_line2": "2 43707  54.1733 188.6279 0006341 353.0309   7.0205  1.86226578 48050"
      },
      "geometry": {
        "type": "Point",
        "coordinates": [
          -178.31370178316936,
          -9.456674599138825
        ]
      }
    },
    {
      "type": "Feature",
      "properties": {
        "norad_id": 43873,
        "name": "GPS BIII-1  (PRN 04)",
        "group": "gnss",
        "lat": -43.80031087531122,
        "lon": -39.399645071733964,
        "alt_km": 20114.46095415116,
        "timestamp": "2025-12-13T08:49:15.929434+00:00",
        "meta_object_name": "GPS BIII-1  (PRN 04)",
        "meta_object_id": "2018-109A",
        "meta_epoch": "2025-12-12T07:06:10.304640",
        "meta_mean_motion": 2.00553613,
        "meta_eccentricity": 0.0037314,
        "meta_inclination": 55.5671,
        "meta_ra_of_asc_node": 99.5642,
        "meta_arg_of_pericenter": 194.9554,
        "meta_mean_anomaly": 348.038,
        "meta_ephemeris_type": 0,
        "meta_classification_type": "U",
        "meta_norad_cat_id": 43873,
        "meta_element_set_no": 999,
        "meta_rev_at_epoch": 5132,
        "meta_bstar": 0,
        "meta_mean_motion_dot": -2e-08,
        "meta_mean_motion_ddot": 0,
        "tle_line1": "1 43873U 18109A   25346.29595260 -.00000002  00000+0  00000+0 0  9993",
        "tle_line2": "2 43873  55.5671  99.5642 0037314 194.9554 348.0380  2.00553613 51328"
      },
      "geometry": {
        "type": "Point",
        "coordinates": [
          -39.399645071733964,
          -43.80031087531122
        ]
      }
    }
  ]
}